*******************************************************************************
 Revised: Dec 14, 2021            STEREO-A Spacecraft                      -234
                              http://stereo.gsfc.nasa.gov/

 BACKGROUND:
  STEREO (Solar TErrestrial RElations Observatory) is the third mission in 
  NASA's Solar Terrestrial Probes program (STP). This two-year mission will use
  two nearly identical space-based observatories - one ahead of Earth in its 
  orbit, the other trailing behind - to provide stereoscopic measurements to 
  study the Sun and the nature of coronal mass ejections (CMEs).

 OBJECTIVES:
  * Understand the causes and mechanisms of coronal mass ejection (CME) 
     initiation.
  * Characterize the propagation of CMEs through the heliosphere.
  * Discover the mechanisms and sites of energetic particle acceleration in 
     the low corona and the interplanetary medium.
  * Improve the determination of the structure of the ambient solar wind. 

 SPACECRAFT:
  Launch (Delta II 7925-10L) = October 26, 2006 @ 1:53 UTC
  Mission end                = 2 year nominal mission after launch
  Dimensions                 = 1.14m x 1.22m (launch), 6.47m x 2.03m (deployed)
  Launch Mass                = 620 kg  (includes propellant)
  Power consumption          = 475 watts
  Data downlink              = 720 kilobits/sec
  Memory                     = 1 GB
  Attitude                   = control within 7", knowledge within 0.1"

 INSTRUMENTS (4 packages on each spacecraft):
  * Sun Earth Connection Coronal and Heliospheric Investigation (SECCHI)
  * STEREO/WAVES (SWAVES) radio burst tracker
  * In-situ Measurements of Particles and CME Transients (IMPACT)
  * PLAsma and SupraThermal Ion Composition (PLASTIC) 

 ORBIT:
  STEREO-A and STEREO-B will be launched together, then separate. The Moon's 
  gravity will be used to redirect the observatories to their appropriate 
  orbits, something the launch vehicle alone is not able to do.

  For the first three months after launch, the two observatories will fly in 
  highly elliptical orbits extending from very close to Earth to just beyond 
  the Moon's orbit. STEREO Mission Operations personnel at APL will 
  synchronize spacecraft orbits so that about two months after launch they 
  encounter the Moon, at which time one of them is close enough to use the 
  Moon's gravity to redirect it to a position "ahead"/leading the Earth. 
  Approximately one month later, the second observatory will encounter the 
  Moon again and be redirected to its orbit "behind"/trailing the Earth. 

 POST-LAUNCH SPACECRAFT TRAJECTORY: 
  Fit to tracking data until 2021-Nov-26, planning prediction thereafter.

  Trajectory name                    Start        Stop
  ---------------------------------  -----------  -----------
  ahead_2006_350_01.depm             2006-Oct-26  2006-Dec-15
  ahead_2008_037_01.depm             2006-Dec-15  2008-Jan-21
  ahead_2010_208_01.depm             2008-Jan-21  2010-Jul-16
  ahead_2012_138_01.depm             2010-Jul-16  2012-Apr-18
  ahead_2013_130_01.depm             2012-Apr-18  2013-Apr-25
  ahead_2015_219_01.depm             2013-Apr-25  2015-Jul-23
  ahead_2018_019_01.depm             2015-Jul-23  2017-Dec-21
  ahead_2020_224_01.depm             2017-Dec-21  2020-Aug-11
  ahead_2021_327_07.depm             2020-Aug-11  2021-Nov-23
  ahead_2021_327_07.epm              2021-Nov-23  2022-Mar-17
*******************************************************************************


*******************************************************************************
Ephemeris / WWW_USER Wed Feb  2 11:14:01 2022 Pasadena, USA      / Horizons    
*******************************************************************************
Target body name: STEREO-A (spacecraft) (-234)    {source: STEREO-A_merged}
Center body name: Sun (10)                        {source: DE441}
Center-site name: BODYCENTRIC
*******************************************************************************
Start time      : A.D. 2010-Jan-01 00:09:00.0000 UT      
Stop  time      : A.D. 2010-Dec-31 23:59:00.0000 UT      
Step-size       : 40 minutes
*******************************************************************************
Target pole/equ : No model available
Target radii    : (unavailable)                                                
Center geodetic : 0.00000000,0.00000000,0.0000000 {E-lon(deg),Lat(deg),Alt(km)}
Center cylindric: 0.00000000,0.00000000,0.0000000 {E-lon(deg),Dxy(km),Dz(km)}
Center pole/equ : IAU_SUN                         {East-longitude positive}
Center radii    : 696000.0 x 696000.0 x 696000.0 k{Equator, meridian, pole}    
Target primary  : Earth
Vis. interferer : None
Rel. light bend : Sun                             {source: DE441}
Rel. lght bnd GM: 1.3271E+11 km^3/s^2                                          
Atmos refraction: NO (AIRLESS)
RA format       : HMS
Time format     : CAL 
EOP file        : eop.220131.p220426                                           
EOP coverage    : DATA-BASED 1962-JAN-20 TO 2022-JAN-31. PREDICTS-> 2022-APR-25
Units conversion: 1 au= 149597870.700 km, c= 299792.458 km/s, 1 day= 86400.0 s 
Table cut-offs 1: Elevation (-90.0deg=NO ),Airmass     n.a.    , Daylight (NO )
Table cut-offs 2: Solar elongation (  0.0,180.0=NO ),Local Hour Angle( 0.0=NO )
Table cut-offs 3: RA/DEC angular rate (     0.0=NO )                           
*******************************************************************************
 Date__(UT)__HR:MN     R.A._____(ICRF)_____DEC             delta      deldot
****************************************************************************
$$SOE
 2010-Jan-18 18:49     12 10 08.16 -01 10 09.2  0.96485420258279  -0.1408566
 2010-Jan-18 19:29     12 10 14.52 -01 10 50.3  0.96485194242550  -0.1409056
 2010-Jan-18 20:09     12 10 20.88 -01 11 31.3  0.96484968148273  -0.1409545
 2010-Jan-18 20:49     12 10 27.24 -01 12 12.4  0.96484741975502  -0.1410034
 2010-Jan-18 21:29     12 10 33.60 -01 12 53.5  0.96484515724294  -0.1410523
 2010-Jan-18 22:09     12 10 39.96 -01 13 34.6  0.96484289394706  -0.1411011
 2010-Jan-18 22:49     12 10 46.32 -01 14 15.7  0.96484062986797  -0.1411499
 2010-Jan-18 23:29     12 10 52.67 -01 14 56.7  0.96483836500617  -0.1411987
 2010-Jan-19 00:09     12 10 59.03 -01 15 37.8  0.96483609936232  -0.1412474
 2010-Jan-19 00:49     12 11 05.39 -01 16 18.9  0.96483383293687  -0.1412961
 2010-Jan-19 01:29     12 11 11.75 -01 17 00.0  0.96483156573049  -0.1413448
 2010-Jan-19 02:09     12 11 18.11 -01 17 41.0  0.96482929774365  -0.1413934
 2010-Jan-19 02:49     12 11 24.47 -01 18 22.1  0.96482702897703  -0.1414420
 2010-Jan-19 03:29     12 11 30.83 -01 19 03.2  0.96482475943116  -0.1414906
 2010-Jan-19 04:09     12 11 37.19 -01 19 44.3  0.96482248910654  -0.1415391
 2010-Jan-19 04:49     12 11 43.55 -01 20 25.3  0.96482021800379  -0.1415876
 2010-Jan-19 05:29     12 11 49.91 -01 21 06.4  0.96481794612353  -0.1416360
 2010-Jan-19 06:09     12 11 56.27 -01 21 47.5  0.96481567346620  -0.1416844
 2010-Jan-19 06:49     12 12 02.63 -01 22 28.5  0.96481340003251  -0.1417328
 2010-Jan-19 07:29     12 12 08.99 -01 23 09.6  0.96481112582296  -0.1417811
 2010-Jan-19 08:09     12 12 15.35 -01 23 50.7  0.96480885083815  -0.1418295
 2010-Jan-19 08:49     12 12 21.71 -01 24 31.7  0.96480657507859  -0.1418777
 2010-Jan-19 09:29     12 12 28.07 -01 25 12.8  0.96480429854487  -0.1419260
 2010-Jan-19 10:09     12 12 34.43 -01 25 53.9  0.96480202123760  -0.1419742
 2010-Jan-19 10:49     12 12 40.79 -01 26 34.9  0.96479974315732  -0.1420223
 2010-Jan-19 11:29     12 12 47.15 -01 27 16.0  0.96479746430462  -0.1420705
 2010-Jan-19 12:09     12 12 53.51 -01 27 57.0  0.96479518468001  -0.1421186
 2010-Jan-19 12:49     12 12 59.87 -01 28 38.1  0.96479290428415  -0.1421666
 2010-Jan-19 13:29     12 13 06.23 -01 29 19.2  0.96479062311754  -0.1422146
 2010-Jan-19 14:09     12 13 12.59 -01 30 00.2  0.96478834118082  -0.1422626
 2010-Jan-19 14:49     12 13 18.95 -01 30 41.3  0.96478605847449  -0.1423106
 2010-Jan-19 15:29     12 13 25.31 -01 31 22.3  0.96478377499918  -0.1423585
 2010-Jan-19 16:09     12 13 31.67 -01 32 03.4  0.96478149112792  -0.1404636
 2010-Jan-19 16:49     12 13 38.03 -01 32 44.5  0.96477922298762  -0.1425302
 2010-Jan-19 17:29     12 13 44.39 -01 33 25.5  0.96477693598977  -0.1425780
 2010-Jan-19 18:09     12 13 50.76 -01 34 06.6  0.96477464822498  -0.1426258
 2010-Jan-19 18:49     12 13 57.12 -01 34 47.6  0.96477235969391  -0.1426735
 2010-Jan-19 19:29     12 14 03.48 -01 35 28.7  0.96477007039705  -0.1427213
 2010-Jan-19 20:09     12 14 09.84 -01 36 09.7  0.96476778033507  -0.1427689
 2010-Jan-19 20:49     12 14 16.20 -01 36 50.8  0.96476548950851  -0.1428166
 2010-Jan-19 21:29     12 14 22.56 -01 37 31.8  0.96476319791788  -0.1428642
 2010-Jan-19 22:09     12 14 28.93 -01 38 12.9  0.96476090556380  -0.1429118
 2010-Jan-19 22:49     12 14 35.29 -01 38 53.9  0.96475861244683  -0.1429593
 2010-Jan-19 23:29     12 14 41.65 -01 39 35.0  0.96475631856755  -0.1430068
 2010-Jan-20 00:09     12 14 48.01 -01 40 16.0  0.96475402392660  -0.1430543
 2010-Jan-20 00:49     12 14 54.38 -01 40 57.0  0.96475172852443  -0.1431017
 2010-Jan-20 01:29     12 15 00.74 -01 41 38.1  0.96474943236176  -0.1431491
 2010-Jan-20 02:09     12 15 07.10 -01 42 19.1  0.96474713543899  -0.1431964
 2010-Jan-20 02:49     12 15 13.46 -01 43 00.2  0.96474483775684  -0.1432437
 2010-Jan-20 03:29     12 15 19.83 -01 43 41.2  0.96474253931586  -0.1432910
 2010-Jan-20 04:09     12 15 26.19 -01 44 22.2  0.96474024011658  -0.1433383
 2010-Jan-20 04:49     12 15 32.55 -01 45 03.3  0.96473794015963  -0.1433855
 2010-Jan-20 05:29     12 15 38.91 -01 45 44.3  0.96473563944548  -0.1434327
 2010-Jan-20 06:09     12 15 45.28 -01 46 25.3  0.96473333797483  -0.1434798
 2010-Jan-20 06:49     12 15 51.64 -01 47 06.4  0.96473103574825  -0.1435269
 2010-Jan-20 07:29     12 15 58.00 -01 47 47.4  0.96472873276623  -0.1435740
 2010-Jan-20 08:09     12 16 04.37 -01 48 28.4  0.96472642902934  -0.1436210
 2010-Jan-20 08:49     12 16 10.73 -01 49 09.4  0.96472412453831  -0.1436680
 2010-Jan-20 09:29     12 16 17.10 -01 49 50.5  0.96472181929358  -0.1437150
 2010-Jan-20 10:09     12 16 23.46 -01 50 31.5  0.96471951329574  -0.1437619
 2010-Jan-20 10:49     12 16 29.82 -01 51 12.5  0.96471720654539  -0.1438088
 2010-Jan-20 11:29     12 16 36.19 -01 51 53.5  0.96471489904312  -0.1438556
 2010-Jan-20 12:09     12 16 42.55 -01 52 34.6  0.96471259078949  -0.1439024
 2010-Jan-20 12:49     12 16 48.92 -01 53 15.6  0.96471028178509  -0.1439492
